{"type": "FeatureCollection", "features": [ {"type": "Feature", "properties": {"norad_id": 34833, "name": "IRIDIUM 33 DEB", "group": "iridium-33-debris", "lat": -25.094568011542087, "lon": -123.2048323822531, "alt_km": 720.5552476770554, "timestamp": "2025-12-03T04:52:30.023208+00:00", "meta": {"OBJECT_NAME": "IRIDIUM 33 DEB", "OBJECT_ID": "1997-051MH", "EPOCH": "2025-12-02T05:03:01.052640", "MEAN_MOTION": 14.52266696, "ECCENTRICITY": 0.00214845, "INCLINATION": 86.3939, "RA_OF_ASC_NODE": 55.5303, "ARG_OF_PERICENTER": 130.9995, "MEAN_ANOMALY": 287.1391, "EPHEMERIS_TYPE": 0, "CLASSIFICATION_TYPE": "U", "NORAD_CAT_ID": 34833, "ELEMENT_SET_NO": 999, "REV_AT_EPOCH": 87562, "BSTAR": 0.0010041369, "MEAN_MOTION_DOT": 4.11e-05, "MEAN_MOTION_DDOT": 0}, "tle": {"line1": "1 34833U 97051MH  25336.21042885  .00004110  00000+0  10041-2 0  9995", "line2": "2 34833  86.3939  55.5303 0021484 130.9995 287.1391 14.52266696875623"}}, "geometry": {"type": "Point", "coordinates": [-123.2048323822531, -25.094568011542087]}}, {"type": "Feature", "properties": {"norad_id": 34870, "name": "IRIDIUM 33 DEB", "group": "iridium-33-debris", "lat": 75.36848593808064, "lon": -27.236842357025232, "alt_km": 643.0037056842757, "timestamp": "2025-12-03T04:52:30.023218+00:00", "meta": {"OBJECT_NAME": "IRIDIUM 33 DEB", "OBJECT_ID": "1997-051MQ", "EPOCH": "2025-12-01T05:36:37.151712", "MEAN_MOTION": 14.76055324, "ECCENTRICITY": 0.0014764, "INCLINATION": 86.3102, "RA_OF_ASC_NODE": 319.3536, "ARG_OF_PERICENTER": 227.1347, "MEAN_ANOMALY": 190.7112, "EPHEMERIS_TYPE": 0, "CLASSIFICATION_TYPE": "U", "NORAD_CAT_ID": 34870, "ELEMENT_SET_NO": 999, "REV_AT_EPOCH": 88741, "BSTAR": 0.0019021, "MEAN_MOTION_DOT": 0.00013168, "MEAN_MOTION_DDOT": 0}, "tle": {"line1": "1 34870U 97051MQ  25335.23376333  .00013168  00000+0  19021-2 0  9995", "line2": "2 34870  86.3102 319.3536 0014764 227.1347 190.7112 14.76055324887418"}}, "geometry": {"type": "Point", "coordinates": [-27.236842357025232, 75.36848593808064]}}, {"type": "Feature", "properties": {"norad_id": 34896, "name": "IRIDIUM 33 DEB", "group": "iridium-33-debris", "lat": -81.72733057823724, "lon": 177.17042285447027, "alt_km": 664.5823409683962, "timestamp": "2025-12-03T04:52:30.023228+00:00", "meta": {"OBJECT_NAME": "IRIDIUM 33 DEB", "OBJECT_ID": "1997-051MY", "EPOCH": "2025-12-02T06:27:15.824160", "MEAN_MOTION": 14.66099888, "ECCENTRICITY": 0.0023761, "INCLINATION": 86.3285, "RA_OF_ASC_NODE": 331.3819, "ARG_OF_PERICENTER": 253.426, "MEAN_ANOMALY": 121.6385, "EPHEMERIS_TYPE": 0, "CLASSIFICATION_TYPE": "U", "NORAD_CAT_ID": 34896, "ELEMENT_SET_NO": 999, "REV_AT_EPOCH": 87466, "BSTAR": 0.0012182, "MEAN_MOTION_DOT": 6.738e-05, "MEAN_MOTION_DDOT": 0}, "tle": {"line1": "1 34896U 97051MY  25336.26893315  .00006738  00000+0  12182-2 0  9997", "line2": "2 34896  86.3285 331.3819 0023761 253.4260 121.6385 14.66099888874669"}}, "geometry": {"type": "Point", "coordinates": [177.17042285447027, -81.72733057823724]}}, {"type": "Feature", "properties": {"norad_id": 34926, "name": "IRIDIUM 33 DEB", "group": "iridium-33-debris", "lat": 45.341792181801196, "lon": 16.617980439272724, "alt_km": 700.0954550317429, "timestamp": "2025-12-03T04:52:30.023239+00:00", "meta": {"OBJECT_NAME": "IRIDIUM 33 DEB", "OBJECT_ID": "1997-051NF", "EPOCH": "2025-12-02T20:58:36.077952", "MEAN_MOTION": 14.53690717, "ECCENTRICITY": 0.0076971, "INCLINATION": 86.1333, "RA_OF_ASC_NODE": 12.8456, "ARG_OF_PERICENTER": 326.4032, "MEAN_ANOMALY": 157.1185, "EPHEMERIS_TYPE": 0, "CLASSIFICATION_TYPE": "U", "NORAD_CAT_ID": 34926, "ELEMENT_SET_NO": 999, "REV_AT_EPOCH": 86313, "BSTAR": 0.0064845, "MEAN_MOTION_DOT": 0.00028341, "MEAN_MOTION_DDOT": 0}, "tle": {"line1": "1 34926U 97051NF  25336.87402868  .00028341  00000+0  64845-2 0  9994", "line2": "2 34926  86.1333  12.8456 0076971 326.4032 157.1185 14.53690717863138"}}, "geometry": {"type": "Point", "coordinates": [16.617980439272724, 45.341792181801196]}}, {"type": "Feature", "properties": {"norad_id": 34985, "name": "IRIDIUM 33 DEB", "group": "iridium-33-debris", "lat": -44.35449850410783, "lon": -115.49460353149249, "alt_km": 746.4879778599961, "timestamp": "2025-12-03T04:52:30.023250+00:00", "meta": {"OBJECT_NAME": "IRIDIUM 33 DEB", "OBJECT_ID": "1997-051NR", "EPOCH": "2025-12-02T06:26:29.023872", "MEAN_MOTION": 14.41932039, "ECCENTRICITY": 0.0019855, "INCLINATION": 86.3697, "RA_OF_ASC_NODE": 61.3452, "ARG_OF_PERICENTER": 256.3727, "MEAN_ANOMALY": 159.0291, "EPHEMERIS_TYPE": 0, "CLASSIFICATION_TYPE": "U", "NORAD_CAT_ID": 34985, "ELEMENT_SET_NO": 999, "REV_AT_EPOCH": 87024, "BSTAR": 0.00095476, "MEAN_MOTION_DOT": 3.152e-05, "MEAN_MOTION_DDOT": 0}, "tle": {"line1": "1 34985U 97051NR  25336.26839148  .00003152  00000+0  95476-3 0  9995", "line2": "2 34985  86.3697  61.3452 0019855 256.3727 159.0291 14.41932039870245"}}, "geometry": {"type": "Point", "coordinates": [-115.49460353149249, -44.35449850410783]}}, {"type": "Feature", "properties": {"norad_id": 35051, "name": "IRIDIUM 33 DEB", "group": "iridium-33-debris", "lat": -34.42224566605052, "lon": 10.494507751784559, "alt_km": 746.4941140457686, "timestamp": "2025-12-03T04:52:30.023260+00:00", "meta": {"OBJECT_NAME": "IRIDIUM 33 DEB", "OBJECT_ID": "1997-051NX", "EPOCH": "2025-12-01T09:53:54.581856", "MEAN_MOTION": 14.47515304, "ECCENTRICITY": 0.00104451, "INCLINATION": 86.3252, "RA_OF_ASC_NODE": 13.7986, "ARG_OF_PERICENTER": 121.6547, "MEAN_ANOMALY": 238.5677, "EPHEMERIS_TYPE": 0, "CLASSIFICATION_TYPE": "U", "NORAD_CAT_ID": 35051, "ELEMENT_SET_NO": 999, "REV_AT_EPOCH": 86832, "BSTAR": 0.00073041402, "MEAN_MOTION_DOT": 2.705e-05, "MEAN_MOTION_DDOT": 0}, "tle": {"line1": "1 35051U 97051NX  25335.41243729  .00002705  00000+0  73041-3 0  9997", "line2": "2 35051  86.3252  13.7986 0010445 121.6547 238.5677 14.47515304868325"}}, "geometry": {"type": "Point", "coordinates": [10.494507751784559, -34.42224566605052]}}, {"type": "Feature", "properties": {"norad_id": 35052, "name": "IRIDIUM 33 DEB", "group": "iridium-33-debris", "lat": 65.69581954826663, "lon": 32.730579537378354, "alt_km": 750.4159568653931, "timestamp": "2025-12-03T04:52:30.023270+00:00", "meta": {"OBJECT_NAME": "IRIDIUM 33 DEB", "OBJECT_ID": "1997-051NY", "EPOCH": "2025-12-02T10:12:18.686592", "MEAN_MOTION": 14.38472641, "ECCENTRICITY": 0.00135314, "INCLINATION": 86.332, "RA_OF_ASC_NODE": 24.8977, "ARG_OF_PERICENTER": 113.8149, "MEAN_ANOMALY": 246.4469, "EPHEMERIS_TYPE": 0, "CLASSIFICATION_TYPE": "U", "NORAD_CAT_ID": 35052, "ELEMENT_SET_NO": 999, "REV_AT_EPOCH": 87127, "BSTAR": 0.00026027257, "MEAN_MOTION_DOT": 8.15e-06, "MEAN_MOTION_DDOT": 0}, "tle": {"line1": "1 35052U 97051NY  25336.42521628  .00000815  00000+0  26027-3 0  9999", "line2": "2 35052  86.3320  24.8977 0013531 113.8149 246.4469 14.38472641871276"}}, "geometry": {"type": "Point", "coordinates": [32.730579537378354, 65.69581954826663]}}, {"type": "Feature", "properties": {"norad_id": 35080, "name": "IRIDIUM 33 DEB", "group": "iridium-33-debris", "lat": 81.05880865115716, "lon": 81.87561499995721, "alt_km": 637.9130199082938, "timestamp": "2025-12-03T04:52:30.023280+00:00", "meta": {"OBJECT_NAME": "IRIDIUM 33 DEB", "OBJECT_ID": "1997-051PF", "EPOCH": "2025-12-01T23:22:16.261248", "MEAN_MOTION": 14.83809313, "ECCENTRICITY": 0.00642465, "INCLINATION": 86.2057, "RA_OF_ASC_NODE": 57.5123, "ARG_OF_PERICENTER": 215.9752, "MEAN_ANOMALY": 143.7139, "EPHEMERIS_TYPE": 0, "CLASSIFICATION_TYPE": "U", "NORAD_CAT_ID": 35080, "ELEMENT_SET_NO": 999, "REV_AT_EPOCH": 69528, "BSTAR": 0.0089496131, "MEAN_MOTION_DOT": 0.00077648, "MEAN_MOTION_DDOT": 0}, "tle": {"line1": "1 35080U 97051PF  25335.97379932  .00077648  00000+0  89496-2 0  9994", "line2": "2 35080  86.2057  57.5123 0064246 215.9752 143.7139 14.83809313695280"}}, "geometry": {"type": "Point", "coordinates": [81.87561499995721, 81.05880865115716]}}, {"type": "Feature", "properties": {"norad_id": 35297, "name": "IRIDIUM 33 DEB", "group": "iridium-33-debris", "lat": 74.29779131588147, "lon": -126.16323700189838, "alt_km": 729.7836840403406, "timestamp": "2025-12-03T04:52:30.023291+00:00", "meta": {"OBJECT_NAME": "IRIDIUM 33 DEB", "OBJECT_ID": "1997-051PM", "EPOCH": "2025-11-28T13:02:32.385696", "MEAN_MOTION": 14.4505178, "ECCENTRICITY": 0.00162447, "INCLINATION": 86.3859, "RA_OF_ASC_NODE": 68.817, "ARG_OF_PERICENTER": 185.2069, "MEAN_ANOMALY": 174.8967, "EPHEMERIS_TYPE": 0, "CLASSIFICATION_TYPE": "U", "NORAD_CAT_ID": 35297, "ELEMENT_SET_NO": 999, "REV_AT_EPOCH": 70221, "BSTAR": 0.00072341306, "MEAN_MOTION_DOT": 2.549e-05, "MEAN_MOTION_DDOT": 0}, "tle": {"line1": "1 35297U 97051PM  25332.54343039  .00002549  00000+0  72341-3 0  9993", "line2": "2 35297  86.3859  68.8170 0016244 185.2069 174.8967 14.45051780702214"}}, "geometry": {"type": "Point", "coordinates": [-126.16323700189838, 74.29779131588147]}}, {"type": "Feature", "properties": {"norad_id": 35299, "name": "IRIDIUM 33 DEB", "group": "iridium-33-debris", "lat": -6.286879434255865, "lon": -142.25328543650798, "alt_km": 734.7382183697009, "timestamp": "2025-12-03T04:52:30.023301+00:00", "meta": {"OBJECT_NAME": "IRIDIUM 33 DEB", "OBJECT_ID": "1997-051PP", "EPOCH": "2025-12-02T11:38:41.155584", "MEAN_MOTION": 14.40775501, "ECCENTRICITY": 0.00585815, "INCLINATION": 86.2895, "RA_OF_ASC_NODE": 37.6494, "ARG_OF_PERICENTER": 135.0483, "MEAN_ANOMALY": 289.2152, "EPHEMERIS_TYPE": 0, "CLASSIFICATION_TYPE": "U", "NORAD_CAT_ID": 35299, "ELEMENT_SET_NO": 999, "REV_AT_EPOCH": 86183, "BSTAR": 0.00106804, "MEAN_MOTION_DOT": 3.506e-05, "MEAN_MOTION_DDOT": 0}, "tle": {"line1": "1 35299U 97051PP  25336.48519856  .00003506  00000+0  10680-2 0  9995", "line2": "2 35299  86.2895  37.6494 0058581 135.0483 289.2152 14.40775501861831"}}, "geometry": {"type": "Point", "coordinates": [-142.25328543650798, -6.286879434255865]}}]}